ONEWEB-0578             
1 56067U 23043X   25057.50304134  .00000115  00000+0  24622-3 0  9990
2 56067  87.9349 338.7913 0001662  76.3773 283.7545 13.21823698 95391
ONEWEB-0579             
1 56068U 23043Y   25057.49359721  .00000168  00000+0  37566-3 0  9990
2 56068  87.9349 338.7827 0002065  86.2640 273.8730 13.21825872 95401
ONEWEB-0581             
1 56069U 23043Z   25057.48529794  .00000097  00000+0  22096-3 0  9992
2 56069  87.9115 323.6093 0001569  95.8935 264.2375 13.16593997 96361
ONEWEB-0609             
1 56070U 23043AA  25057.74940248  .00000066  00000+0  14031-3 0  9990
2 56070  87.9136 353.9091 0001919  76.7434 283.3910 13.15548207 93920
ONEWEB-0613             
1 56071U 23043AB  25057.51647793  .00000087  00000+0  19788-3 0  9992
2 56071  87.9138 353.9615 0002074  82.4743 277.6622 13.15549295 93895
ONEWEB-0630             
1 56072U 23043AC  25057.51172626  .00000102  00000+0  23758-3 0  9991
2 56072  87.9134 353.9443 0002130  80.0861 280.0509 13.15548184 93886
ONEWEB-0632             
1 56073U 23043AD  25056.74651010 -.00012141  00000+0 -32372-1 0  9993
2 56073  87.9135 354.1153 0004625  88.8209 271.3451 13.15451617 93784
ONEWEB-0633             
1 56074U 23043AE  25057.57669361  .00000176  00000+0  43481-3 0  9992
2 56074  87.9130 353.9229 0002262  76.8190 283.3193 13.15547883 93879
